OBJECT_NAME,OBJECT_ID,EPOCH,MEAN_MOTION,ECCENTRICITY,INCLINATION,RA_OF_ASC_NODE,ARG_OF_PERICENTER,MEAN_ANOMALY,EPHEMERIS_TYPE,CLASSIFICATION_TYPE,NORAD_CAT_ID,ELEMENT_SET_NO,REV_AT_EPOCH,BSTAR,MEAN_MOTION_DOT,MEAN_MOTION_DDOT
STARLINK-30348,2023-129Q,2024-02-07T20:18:49.627872,15.02527347,.0001218,43.0034,294.5198,276.1837,83.8867,0,U,57712,999,2620,-.19759E-3,-.2871E-4,0
STARLINK-30349,2023-129R,2024-02-07T18:33:29.559456,15.02531965,.0001655,43.0032,294.8252,246.5059,113.5609,0,U,57713,999,2605,.33449E-5,-.159E-5,0
STARLINK-30341,2023-129S,2024-02-07T21:11:21.604416,15.02566763,.0001401,43.0032,293.9324,279.1946,80.8738,0,U,57714,999,2621,.38654E-3,.5026E-4,0
STARLINK-30300,2023-129T,2024-02-07T20:23:37.035744,15.02525706,.0001151,43.0019,294.5431,241.1522,118.9205,0,U,57715,999,2620,.12364E-2,.16533E-3,0
STARLINK-30281,2023-129U,2024-02-07T16:43:22.797696,15.02550991,.0001435,42.9953,295.1205,43.1832,316.9122,0,U,57716,999,2604,.85699E-3,.11396E-3,0
STARLINK-30325,2023-129V,2024-02-07T17:02:34.194336,15.02539488,.0000459,42.9971,295.2121,80.8219,279.2675,0,U,57717,999,2618,.82559E-4,.912E-5,0
STARLINK-30338,2023-129W,2024-02-07T16:48:10.795680,15.02545953,.0000955,42.9985,295.1427,25.2463,334.8426,0,U,57718,999,2618,.12341E-3,.1464E-4,0
STARLINK-30334,2023-129X,2024-02-07T16:52:59.593728,15.02559966,.0000301,42.9996,295.1654,52.3192,307.7678,0,U,57719,999,2604,.14616E-2,.19608E-3,0
YAOGAN-39 01A,2023-130A,2024-02-07T17:09:08.907552,15.22651723,.0007679,34.9968,140.1577,255.7094,104.2768,0,U,57727,999,2444,.57769E-3,.13773E-3,0
YAOGAN-39 01B,2023-130B,2024-02-07T17:07:41.641824,15.22532180,.00019,34.9959,140.1493,271.1522,88.8975,0,U,57728,999,2446,.1003E-2,.2387E-3,0
YAOGAN-39 01C,2023-130E,2024-02-07T13:54:18.091584,15.22445944,.0005047,34.9955,140.9445,204.7211,155.3262,0,U,57731,999,2442,.78869E-3,.18706E-3,0
STARLINK-30375,2023-131A,2024-02-07T20:51:12.980736,15.02531304,.0000601,42.9983,333.3872,288.3657,71.7120,0,U,57732,999,2563,.37823E-3,.4909E-4,0
STARLINK-30310,2023-131B,2024-02-07T13:12:44.391456,15.02552982,.0000859,43.0043,347.2093,283.0978,76.9769,0,U,57733,999,2556,-.24006E-3,-.3446E-4,0
STARLINK-30365,2023-131C,2024-02-07T14:05:29.073120,15.02539308,.0000309,43.0039,347.4523,267.3032,92.7775,0,U,57734,999,2541,-.59337E-4,-.1005E-4,0
STARLINK-30371,2023-131D,2024-02-07T21:30:35.295840,15.02533506,.0000273,43.0025,345.5074,305.6284,54.4533,0,U,57735,999,2548,.81398E-3,.10808E-3,0
STARLINK-30352,2023-131E,2024-02-07T21:16:12.320544,15.02544641,.0000443,43.0031,345.4283,80.4571,279.6321,0,U,57736,999,2548,.1876E-2,.25235E-3,0
STARLINK-30344,2023-131F,2024-02-07T01:38:51.271872,15.02543524,.0001483,43.0026,350.4764,222.8298,137.2429,0,U,57737,999,2535,.1311E-2,.17554E-3,0
STARLINK-30351,2023-131G,2024-02-07T01:34:03.386208,15.02545548,.0001228,43.0036,350.4500,220.8112,139.2638,0,U,57738,999,2535,.28851E-3,.3697E-4,0
STARLINK-30242,2023-131H,2024-02-07T22:00:00.999936,15.02565171,.0001409,43.0003,320.2874,282.4901,280.7790,0,U,57739,999,580,-.2794E-2,-.37773E-3,0
STARLINK-30331,2023-131J,2024-02-07T01:24:28.042560,15.02543884,.0001359,43.0041,350.4016,223.5769,136.4966,0,U,57740,999,2535,.4173E-3,.5439E-4,0
STARLINK-30364,2023-131K,2024-02-07T21:54:33.302016,15.02536509,.0000978,42.9996,345.6255,214.0396,146.0384,0,U,57741,999,2548,.5052E-3,.6627E-4,0
STARLINK-30308,2023-131L,2024-02-07T01:29:15.615456,15.02546705,.0001547,43.0043,350.4284,227.1144,132.9568,0,U,57742,999,2536,.16305E-2,.21897E-3,0
STARLINK-30361,2023-131M,2024-02-07T20:14:02.707296,15.02533264,.0000947,43.0016,345.9624,237.6542,122.4209,0,U,57743,999,2547,.58704E-3,.7735E-4,0
STARLINK-30363,2023-131N,2024-02-07T19:10:41.317248,15.02546378,.0001045,42.9951,333.7266,61.4019,298.6928,0,U,57744,999,2561,.12846E-2,.17197E-3,0
STARLINK-30362,2023-131P,2024-02-07T21:44:58.578720,15.02538083,.0001157,43.0022,345.5795,271.9132,88.1578,0,U,57745,999,2548,.72563E-3,.9612E-4,0
STARLINK-30350,2023-131Q,2024-02-07T21:43:17.293728,15.01719862,.00003,42.9994,345.5612,273.9467,86.1341,0,U,57746,999,2548,.54712E-4,.522E-5,0
STARLINK-30307,2023-131R,2024-02-07T20:04:27.049152,15.02548527,.0000521,42.9996,345.9205,47.7314,312.3573,0,U,57747,999,2547,.18122E-2,.24369E-3,0
STARLINK-30356,2023-131S,2024-02-07T21:35:22.790976,15.02529884,.0000342,43.0003,345.5297,326.9808,33.1012,0,U,57748,999,2548,.19942E-4,.66E-6,0
STARLINK-30366,2023-131T,2024-02-07T21:06:36.587232,15.02538333,.0000514,43.0008,345.3804,26.3183,333.7686,0,U,57749,999,2548,.12765E-3,.1521E-4,0
STARLINK-30357,2023-131U,2024-02-07T21:20:59.966016,15.02534691,.0001005,43.0043,345.4539,244.2198,115.8541,0,U,57750,999,2548,.15232E-2,.20431E-3,0
STARLINK-30370,2023-131V,2024-02-07T12:42:57.483936,15.02561111,.0000559,43.0005,335.1775,289.8464,70.2318,0,U,57751,999,2546,.9283E-3,.12367E-3,0
STARLINK-30368,2023-131W,2024-02-07T21:59:20.589792,15.02539860,.0001078,43.0008,345.6164,204.9627,155.1163,0,U,57752,999,2548,.1595E-3,.1952E-4,0
STARLINK-30343,2023-131X,2024-02-07T21:25:47.486208,15.02534875,.0001905,43.0041,345.4785,253.5868,106.4765,0,U,57753,999,2548,.12491E-2,.16709E-3,0
WILDFIRE 4,2023-133A,2024-02-07T17:30:11.476800,13.86107274,.0010839,81.0016,113.2193,155.8388,204.3279,0,U,57756,999,2190,.16232E-3,.198E-5,0
BB4,2023-133B,2024-02-07T21:14:02.296320,13.86031857,.001085,80.9987,113.0453,156.5504,203.6150,0,U,57757,999,2192,.27393E-3,.326E-5,0
WILDFIRE 3,2023-133C,2024-02-07T21:40:16.594176,13.85848073,.000961,80.9962,113.0234,154.6874,205.4755,0,U,57758,999,2192,.10759E-3,.135E-5,0
BB3,2023-133D,2024-02-07T21:50:21.481440,13.85807319,.0009961,80.9986,113.0771,160.2214,199.9330,0,U,57760,999,2192,.29639E-3,.351E-5,0
WILDFIRE 7,2023-133E,2024-02-07T17:34:21.347328,13.84814596,.0006073,80.9987,113.4943,182.0090,178.1042,0,U,57761,999,2188,.14646E-3,.176E-5,0
CHECKMATE 10,2023-133F,2024-02-07T21:33:01.722240,13.85255544,.0006956,81.0000,113.2433,163.5779,196.5604,0,U,57762,999,2191,.1466E-3,.177E-5,0
WILDFIRE 6,2023-133G,2024-02-07T16:54:05.784768,13.85059893,.0006395,80.9947,113.3940,171.4830,188.6436,0,U,57763,999,2188,.12548E-3,.153E-5,0
WILDFIRE 1,2023-133H,2024-02-07T15:50:15.740160,13.85449055,.0007316,80.9994,113.4136,157.3269,202.8212,0,U,57764,999,2188,.14961E-3,.181E-5,0
WILDFIRE 9,2023-133J,2024-02-07T21:56:49.260192,13.85115221,.0006485,81.0034,113.3222,168.1996,191.9313,0,U,57765,999,2191,.10874E-3,.134E-5,0
WILDFIRE 10,2023-133K,2024-02-07T21:20:12.878880,13.85339528,.0007039,81.0024,113.2705,160.4908,199.6519,0,U,57766,999,2191,.14664E-3,.178E-5,0
WILDFIRE 2,2023-133L,2024-02-07T17:13:40.839456,13.84939389,.00062,80.9957,113.4268,177.0656,183.0538,0,U,57767,999,2188,.14395E-3,.174E-5,0
WILDFIRE 8,2023-133M,2024-02-07T21:50:24.987552,13.85155949,.0006532,80.9947,113.1701,166.6845,193.4485,0,U,57768,999,2192,.14481E-3,.175E-5,0
WILDFIRE 5,2023-133N,2024-02-07T21:40:59.884032,13.85213606,.0006757,81.0032,113.3055,164.8614,195.2745,0,U,57769,999,2191,.15547E-3,.187E-5,0
CH 3 PROPULSION MODULE,2023-098C,2024-02-14T18:03:25.987968,0.06372861,.2146247,28.4876,13.0838,81.0190,324.2788,0,U,57770,999,7,0,-.3204E-4,0
STARLINK-30397,2023-134A,2024-02-07T15:07:01.460928,15.02536260,.0001265,43.0034,13.2729,249.8604,110.2102,0,U,57771,999,2498,.18227E-2,.24504E-3,0
STARLINK-30354,2023-134B,2024-02-07T15:26:00.954240,15.02533507,.0000532,43.0056,12.5116,12.9160,347.1696,0,U,57772,999,2499,.24579E-3,.3118E-4,0
STARLINK-30383,2023-134C,2024-02-07T21:25:06.211200,15.02543550,.0000307,43.0035,11.8044,343.1587,16.9245,0,U,57773,999,2502,.20997E-4,.8E-6,0
STARLINK-30384,2023-134D,2024-02-07T14:52:36.258240,15.02546217,.0000963,43.0037,13.1958,269.4715,90.6017,0,U,57774,999,2498,.91191E-3,.12139E-3,0
STARLINK-30305,2023-134E,2024-02-07T14:57:23.568480,15.02550035,.0001324,43.0033,13.2207,279.3178,80.7514,0,U,57775,999,2498,.1387E-2,.18589E-3,0
STARLINK-30360,2023-134F,2024-02-07T14:47:48.330240,15.02532886,.0000773,43.0041,13.1710,262.7282,97.3473,0,U,57776,999,2498,.13958E-3,.1682E-4,0
STARLINK-30355,2023-134G,2024-02-07T14:38:13.410816,15.02532199,.0000549,43.0042,13.0976,20.9063,339.1802,0,U,57777,999,2497,.12796E-2,.17122E-3,0
STARLINK-30385,2023-134H,2024-02-07T21:30:18.786528,15.02536001,.0000756,43.0023,358.9833,231.9077,128.1697,0,U,57778,999,2501,.14574E-2,.19538E-3,0
STARLINK-30359,2023-134J,2024-02-07T21:20:43.629504,15.02539988,.0000684,42.9993,358.9647,344.9344,15.1478,0,U,57779,999,2517,.9753E-3,.12997E-3,0
STARLINK-30380,2023-134K,2024-02-07T15:35:35.511648,15.02535762,.0000482,43.0042,12.5547,267.3962,92.6825,0,U,57780,999,2499,.98016E-3,.13061E-3,0
STARLINK-30369,2023-134L,2024-02-07T14:33:25.374816,15.02546285,.0001301,43.0010,13.0829,294.9463,65.1244,0,U,57781,999,2491,.1102E-2,.14718E-3,0
STARLINK-30376,2023-134M,2024-02-07T09:17:28.562496,15.02543787,.0001044,43.0034,14.0320,239.7722,120.3017,0,U,57782,999,2495,.87849E-3,.11686E-3,0
STARLINK-30389,2023-134N,2024-02-07T08:00:55.432224,15.02540925,.0000841,43.0027,14.4906,265.4291,94.6455,0,U,57783,999,2494,.58139E-3,.766E-4,0
STARLINK-30388,2023-134P,2024-02-07T22:17:41.216928,15.02543113,.000114,43.0019,11.2126,238.0210,122.0522,0,U,57784,999,2503,.83239E-3,.1106E-3,0
STARLINK-30381,2023-134Q,2024-02-07T15:21:11.159136,15.02547294,.0000839,43.0030,12.3933,283.3388,76.7361,0,U,57785,999,2499,.10634E-2,.14194E-3,0
STARLINK-30382,2023-134R,2024-02-07T22:12:53.421984,15.02541924,.0001076,43.0040,11.1901,246.6855,113.3874,0,U,57786,999,2503,.16316E-2,.21909E-3,0
STARLINK-30378,2023-134S,2024-02-07T21:39:19.643616,15.02550364,.0000157,43.0032,11.0160,43.7042,316.3813,0,U,57787,999,2503,.21346E-2,.28761E-3,0
STARLINK-30387,2023-134T,2024-02-07T07:03:47.599488,15.02538890,.000116,43.0011,1.3869,246.8978,113.1742,0,U,57788,999,2509,.34735E-3,.4492E-4,0
STARLINK-30372,2023-134U,2024-02-07T15:45:10.720512,15.02545375,.0000782,43.0025,12.6005,274.4902,85.5851,0,U,57789,999,2499,.74649E-3,.9897E-4,0
